{
"type": "FeatureCollection",
"name": "connectivity",
"crs": { "type": "name", "properties": { "name": "urn:ogc:def:crs:EPSG::32643" } },
"features": [
{ "type": "Feature", "properties": { "class": 1, "class_name": "Fragmented", "distance_criteria_m": "< 100m", "area_ha": 56.16, "patch_size_ha": 56.16 }, "geometry": { "type": "Polygon", "coordinates": [ [ [ 354050.0, 2498200.0 ], [ 354050.0, 2496700.0 ], [ 352250.0, 2496700.0 ], [ 352250.0, 2498200.0 ], [ 354050.0, 2498200.0 ] ], [ [ 352340.0, 2496790.0 ], [ 353960.0, 2496790.0 ], [ 353960.0, 2498110.0 ], [ 352340.0, 2498110.0 ], [ 352340.0, 2496790.0 ] ] ] } },
{ "type": "Feature", "properties": { "class": 1, "class_name": "Fragmented", "distance_criteria_m": "< 100m", "area_ha": 2.25, "patch_size_ha": 2.25 }, "geometry": { "type": "Polygon", "coordinates": [ [ [ 353900.0, 2498800.0 ], [ 353900.0, 2498650.0 ], [ 353750.0, 2498650.0 ], [ 353750.0, 2498800.0 ], [ 353900.0, 2498800.0 ] ] ] } },
{ "type": "Feature", "properties": { "class": 2, "class_name": "Edge", "distance_criteria_m": "100m - 300m", "area_ha": 92.88, "patch_size_ha": 92.88 }, "geometry": { "type": "Polygon", "coordinates": [ [ [ 352340.0, 2498110.0 ], [ 352340.0, 2496790.0 ], [ 353960.0, 2496790.0 ], [ 353960.0, 2498110.0 ], [ 352340.0, 2498110.0 ] ], [ [ 352520.0, 2497930.0 ], [ 352520.0, 2496970.0 ], [ 353780.0, 2496970.0 ], [ 353780.0, 2497930.0 ], [ 352520.0, 2497930.0 ] ] ] } },
{ "type": "Feature", "properties": { "class": 3, "class_name": "Core", "distance_criteria_m": "> 300m", "area_ha": 120.96, "patch_size_ha": 120.96 }, "geometry": { "type": "Polygon", "coordinates": [ [ [ 352520.0, 2497930.0 ], [ 352520.0, 2496970.0 ], [ 353780.0, 2496970.0 ], [ 353780.0, 2497930.0 ], [ 352520.0, 2497930.0 ] ] ] } }
]
}
